[{"OBJECT_NAME":"STARLINK-30473","OBJECT_ID":"2023-146C","EPOCH":"2026-03-09T17:33:01.341792","MEAN_MOTION":15.0347199,"ECCENTRICITY":0.00010354,"INCLINATION":43.0019,"RA_OF_ASC_NODE":312.9655,"ARG_OF_PERICENTER":249.7613,"MEAN_ANOMALY":110.3119,"EPHEMERIS_TYPE":0,"CLASSIFICATION_TYPE":"U","NORAD_CAT_ID":57893,"ELEMENT_SET_NO":999,"REV_AT_EPOCH":13707,"BSTAR":0.0084839685,"MEAN_MOTION_DOT":0.00119304,"MEAN_MOTION_DDOT":0},{"OBJECT_NAME":"RAPIDEYE 4","OBJECT_ID":"2008-040E","EPOCH":"2026-03-09T22:51:05.848992","MEAN_MOTION":15.03765217,"ECCENTRICITY":0.00096509,"INCLINATION":97.4015,"RA_OF_ASC_NODE":97.7474,"ARG_OF_PERICENTER":35.5595,"MEAN_ANOMALY":324.6273,"EPHEMERIS_TYPE":0,"CLASSIFICATION_TYPE":"U","NORAD_CAT_ID":33316,"ELEMENT_SET_NO":999,"REV_AT_EPOCH":95086,"BSTAR":0.00022327721,"MEAN_MOTION_DOT":3.01e-5,"MEAN_MOTION_DDOT":0}]
